start=new Date('2023-05-23T00:00:00.000Z').valueOf();
sats=[{"ECCENTRICITY":"0.00010800","MEAN_MOTION":"15.08842475","PERIAPSIS":"538.991","CENTER_NAME":"EARTH","SITE":"AFWTR","ARG_OF_PERICENTER":"86.6840","OBJECT_NAME":"STARLINK-3959","MEAN_MOTION_DDOT":"0.0000000000000","RCS_SIZE":"LARGE","MEAN_ANOMALY":"273.4276","GP_ID":"232359878","REF_FRAME":"TEME","CLASSIFICATION_TYPE":"U","OBJECT_TYPE":"PAYLOAD","COUNTRY_CODE":"US","MEAN_MOTION_DOT":"-0.00001110","MEAN_ELEMENT_THEORY":"SGP4","RA_OF_ASC_NODE":"41.2337","OBJECT_ID":"2022-051AH","PERIOD":"95.437","SEMIMAJOR_AXIS":"6917.873","EPHEMERIS_TYPE":"0","BSTAR":"-0.00005169500000","TIME_SYSTEM":"UTC","FILE":"3914964","REV_AT_EPOCH":"5711","EPOCH":"2023-05-22T20:59:32.829792","ELEMENT_SET_NO":"999","LAUNCH_DATE":"2022-05-13","DECAY_DATE":null,"APOAPSIS":"540.485","INCLINATION":"53.2192","NORAD_CAT_ID":"52564","TLE_LINE1":"1 52564U 22051AH  23142.87468553 -.00001110  00000-0 -51695-4 0  9995","TLE_LINE2":"2 52564  53.2192  41.2337 0001080  86.6840 273.4276 15.08842475 57116"},{"EPOCH":"2023-05-22T19:48:36.218016","FILE":"3914964","REV_AT_EPOCH":"5731","TIME_SYSTEM":"UTC","BSTAR":"-0.00008155700000","NORAD_CAT_ID":"52565","INCLINATION":"53.2194","TLE_LINE2":"2 52565  53.2194  26.4412 0001240 119.7248 240.3868 15.08848422 57316","TLE_LINE1":"1 52565U 22051AJ  23142.82541919 -.00001586  00000-0 -81557-4 0  9996","APOAPSIS":"540.577","DECAY_DATE":null,"ELEMENT_SET_NO":"999","LAUNCH_DATE":"2022-05-13","MEAN_ANOMALY":"240.3868","RCS_SIZE":"LARGE","OBJECT_NAME":"STARLINK-3911","MEAN_MOTION_DDOT":"0.0000000000000","GP_ID":"232359615","SITE":"AFWTR","ARG_OF_PERICENTER":"119.7248","PERIAPSIS":"538.862","MEAN_MOTION":"15.08848422","CENTER_NAME":"EARTH","ECCENTRICITY":"0.00012400","SEMIMAJOR_AXIS":"6917.855","EPHEMERIS_TYPE":"0","RA_OF_ASC_NODE":"26.4412","OBJECT_ID":"2022-051AJ","PERIOD":"95.437","MEAN_MOTION_DOT":"-0.00001586","COUNTRY_CODE":"US","CLASSIFICATION_TYPE":"U","OBJECT_TYPE":"PAYLOAD","MEAN_ELEMENT_THEORY":"SGP4","REF_FRAME":"TEME"},{"GP_ID":"232358878","RCS_SIZE":"LARGE","MEAN_ANOMALY":"255.8187","MEAN_MOTION_DDOT":"0.0000000000000","OBJECT_NAME":"STARLINK-3938","ARG_OF_PERICENTER":"104.2963","SITE":"AFWTR","CENTER_NAME":"EARTH","PERIAPSIS":"538.864","MEAN_MOTION":"15.08807472","ECCENTRICITY":"0.00014180","EPHEMERIS_TYPE":"0","SEMIMAJOR_AXIS":"6917.980","PERIOD":"95.440","OBJECT_ID":"2022-051AK","RA_OF_ASC_NODE":"41.9174","MEAN_ELEMENT_THEORY":"SGP4","COUNTRY_CODE":"US","MEAN_MOTION_DOT":"0.00004454","CLASSIFICATION_TYPE":"U","OBJECT_TYPE":"PAYLOAD","REF_FRAME":"TEME","EPOCH":"2023-05-22T17:15:36.455616","REV_AT_EPOCH":"5709","FILE":"3914964","TIME_SYSTEM":"UTC","BSTAR":"0.00029801000000","TLE_LINE2":"2 52566  53.2212  41.9174 0001418 104.2963 255.8187 15.08807472 57095","TLE_LINE1":"1 52566U 22051AK  23142.71917194  .00004454  00000-0  29801-3 0  9995","NORAD_CAT_ID":"52566","INCLINATION":"53.2212","APOAPSIS":"540.826","DECAY_DATE":null,"LAUNCH_DATE":"2022-05-13","ELEMENT_SET_NO":"999"},{"TIME_SYSTEM":"UTC","BSTAR":"-0.00002641300000","FILE":"3914964","REV_AT_EPOCH":"5731","EPOCH":"2023-05-22T19:37:59.820672","ELEMENT_SET_NO":"999","LAUNCH_DATE":"2022-05-13","APOAPSIS":"540.470","DECAY_DATE":null,"NORAD_CAT_ID":"52567","INCLINATION":"53.2193","TLE_LINE2":"2 52567  53.2193  26.4798 0001107  93.7490 266.3629 15.08853399 57318","TLE_LINE1":"1 52567U 22051AL  23142.81805348 -.00000708  00000-0 -26413-4 0  9991","ECCENTRICITY":"0.00011070","PERIAPSIS":"538.939","MEAN_MOTION":"15.08853399","CENTER_NAME":"EARTH","SITE":"AFWTR","ARG_OF_PERICENTER":"93.7490","RCS_SIZE":"LARGE","MEAN_ANOMALY":"266.3629","OBJECT_NAME":"STARLINK-3929","MEAN_MOTION_DDOT":"0.0000000000000","GP_ID":"232359128","REF_FRAME":"TEME","COUNTRY_CODE":"US","MEAN_MOTION_DOT":"-0.00000708","CLASSIFICATION_TYPE":"U","OBJECT_TYPE":"PAYLOAD","MEAN_ELEMENT_THEORY":"SGP4","OBJECT_ID":"2022-051AL","RA_OF_ASC_NODE":"26.4798","PERIOD":"95.437","SEMIMAJOR_AXIS":"6917.839","EPHEMERIS_TYPE":"0"},{"TLE_LINE2":"2 52568  53.2167  26.5291 0001219  62.4646 297.6470 15.08847262 57312","TLE_LINE1":"1 52568U 22051AM  23142.80702395  .00007314  00000-0  47705-3 0  9993","INCLINATION":"53.2167","NORAD_CAT_ID":"52568","DECAY_DATE":null,"APOAPSIS":"540.566","LAUNCH_DATE":"2022-05-13","ELEMENT_SET_NO":"999","EPOCH":"2023-05-22T19:22:06.869280","REV_AT_EPOCH":"5731","FILE":"3914964","BSTAR":"0.00047705000000","TIME_SYSTEM":"UTC","EPHEMERIS_TYPE":"0","SEMIMAJOR_AXIS":"6917.858","PERIOD":"95.437","OBJECT_ID":"2022-051AM","RA_OF_ASC_NODE":"26.5291","MEAN_ELEMENT_THEORY":"SGP4","CLASSIFICATION_TYPE":"U","OBJECT_TYPE":"PAYLOAD","COUNTRY_CODE":"US","MEAN_MOTION_DOT":"0.00007314","REF_FRAME":"TEME","GP_ID":"232359379","MEAN_MOTION_DDOT":"0.0000000000000","OBJECT_NAME":"STARLINK-3930","RCS_SIZE":"LARGE","MEAN_ANOMALY":"297.6470","ARG_OF_PERICENTER":"62.4646","SITE":"AFWTR","CENTER_NAME":"EARTH","MEAN_MOTION":"15.08847262","PERIAPSIS":"538.880","ECCENTRICITY":"0.00012190"},{"ARG_OF_PERICENTER":"78.5449","SITE":"AFWTR","GP_ID":"232360115","MEAN_ANOMALY":"281.5678","RCS_SIZE":"LARGE","OBJECT_NAME":"STARLINK-3927","MEAN_MOTION_DDOT":"0.0000000000000","ECCENTRICITY":"0.00012010","CENTER_NAME":"EARTH","PERIAPSIS":"538.914","MEAN_MOTION":"15.08840061","PERIOD":"95.438","OBJECT_ID":"2022-051AN","RA_OF_ASC_NODE":"26.4951","EPHEMERIS_TYPE":"0","SEMIMAJOR_AXIS":"6917.880","REF_FRAME":"TEME","MEAN_ELEMENT_THEORY":"SGP4","COUNTRY_CODE":"US","MEAN_MOTION_DOT":"0.00000841","CLASSIFICATION_TYPE":"U","OBJECT_TYPE":"PAYLOAD","REV_AT_EPOCH":"5731","FILE":"3914964","EPOCH":"2023-05-22T19:32:43.345248","TIME_SYSTEM":"UTC","BSTAR":"0.00007094600000","TLE_LINE2":"2 52569  53.2174  26.4951 0001201  78.5449 281.5678 15.08840061 57315","TLE_LINE1":"1 52569U 22051AN  23142.81439057  .00000841  00000-0  70946-4 0  9999","NORAD_CAT_ID":"52569","INCLINATION":"53.2174","LAUNCH_DATE":"2022-05-13","ELEMENT_SET_NO":"999","APOAPSIS":"540.576","DECAY_DATE":null},{"TLE_LINE2":"2 52570  53.2171  26.5453 0001061 114.1294 245.9810 15.08847554 57317","TLE_LINE1":"1 52570U 22051AP  23142.80333962  .00004633  00000-0  30890-3 0  9994","INCLINATION":"53.2171","NORAD_CAT_ID":"52570","LAUNCH_DATE":"2022-05-13","ELEMENT_SET_NO":"999","DECAY_DATE":null,"APOAPSIS":"540.456","REV_AT_EPOCH":"5731","FILE":"3914964","EPOCH":"2023-05-22T19:16:48.543168","BSTAR":"0.00030890000000","TIME_SYSTEM":"UTC","PERIOD":"95.437","OBJECT_ID":"2022-051AP","RA_OF_ASC_NODE":"26.5453","EPHEMERIS_TYPE":"0","SEMIMAJOR_AXIS":"6917.857","REF_FRAME":"TEME","MEAN_ELEMENT_THEORY":"SGP4","CLASSIFICATION_TYPE":"U","OBJECT_TYPE":"PAYLOAD","COUNTRY_CODE":"US","MEAN_MOTION_DOT":"0.00004633","ARG_OF_PERICENTER":"114.1294","SITE":"AFWTR","GP_ID":"232358379","MEAN_MOTION_DDOT":"0.0000000000000","OBJECT_NAME":"STARLINK-3924","RCS_SIZE":"LARGE","MEAN_ANOMALY":"245.9810","ECCENTRICITY":"0.00010610","CENTER_NAME":"EARTH","MEAN_MOTION":"15.08847554","PERIAPSIS":"538.988"},{"TIME_SYSTEM":"UTC","BSTAR":"-0.00006438000000","REV_AT_EPOCH":"5720","FILE":"3914693","EPOCH":"2023-05-22T01:58:10.661376","LAUNCH_DATE":"2022-05-13","ELEMENT_SET_NO":"999","APOAPSIS":"540.589","DECAY_DATE":null,"TLE_LINE2":"2 52574  53.2187  29.7843 0001195 115.0919 245.0197 15.08834587 57207","TLE_LINE1":"1 52574U 22051AQ  23142.08206784 -.00001312  00000-0 -64380-4 0  9994","NORAD_CAT_ID":"52574","INCLINATION":"53.2187","ECCENTRICITY":"0.00011950","CENTER_NAME":"EARTH","PERIAPSIS":"538.935","MEAN_MOTION":"15.08834587","ARG_OF_PERICENTER":"115.0919","SITE":"AFWTR","GP_ID":"232324865","RCS_SIZE":"LARGE","MEAN_ANOMALY":"245.0197","OBJECT_NAME":"STARLINK-3901","MEAN_MOTION_DDOT":"0.0000000000000","REF_FRAME":"TEME","MEAN_ELEMENT_THEORY":"SGP4","MEAN_MOTION_DOT":"-0.00001312","COUNTRY_CODE":"US","CLASSIFICATION_TYPE":"U","OBJECT_TYPE":"PAYLOAD","PERIOD":"95.438","RA_OF_ASC_NODE":"29.7843","OBJECT_ID":"2022-051AQ","EPHEMERIS_TYPE":"0","SEMIMAJOR_AXIS":"6917.897"},{"CENTER_NAME":"EARTH","PERIAPSIS":"538.966","MEAN_MOTION":"15.08850898","ECCENTRICITY":"0.00010780","GP_ID":"232335448","RCS_SIZE":"LARGE","MEAN_ANOMALY":"250.8770","OBJECT_NAME":"STARLINK-3920","MEAN_MOTION_DDOT":"0.0000000000000","ARG_OF_PERICENTER":"109.2339","SITE":"AFWTR","MEAN_ELEMENT_THEORY":"SGP4","COUNTRY_CODE":"US","MEAN_MOTION_DOT":"0.00000268","OBJECT_TYPE":"PAYLOAD","CLASSIFICATION_TYPE":"U","REF_FRAME":"TEME","EPHEMERIS_TYPE":"0","SEMIMAJOR_AXIS":"6917.847","PERIOD":"95.437","RA_OF_ASC_NODE":"26.5605","OBJECT_ID":"2022-051AR","TIME_SYSTEM":"UTC","BSTAR":"0.00003488400000","EPOCH":"2023-05-22T19:11:30.541920","REV_AT_EPOCH":"5738","FILE":"3914944","APOAPSIS":"540.458","DECAY_DATE":null,"LAUNCH_DATE":"2022-05-13","ELEMENT_SET_NO":"999","TLE_LINE1":"1 52575U 22051AR  23142.79965905  .00000268  00000-0  34884-4 0  9993","TLE_LINE2":"2 52575  53.2184  26.5605 0001078 109.2339 250.8770 15.08850898 57380","NORAD_CAT_ID":"52575","INCLINATION":"53.2184"},{"DECAY_DATE":null,"APOAPSIS":"540.383","LAUNCH_DATE":"2022-05-13","ELEMENT_SET_NO":"999","TLE_LINE1":"1 52576U 22051AS  23142.39582826 -.00001382  00000-0 -68829-4 0  9993","TLE_LINE2":"2 52576  53.2168  28.3764 0000864  95.3913 264.7178 15.08827016 57320","INCLINATION":"53.2168","NORAD_CAT_ID":"52576","BSTAR":"-0.00006882900000","TIME_SYSTEM":"UTC","EPOCH":"2023-05-22T09:29:59.561664","REV_AT_EPOCH":"5732","FILE":"3914944","MEAN_ELEMENT_THEORY":"SGP4","OBJECT_TYPE":"PAYLOAD","CLASSIFICATION_TYPE":"U","MEAN_MOTION_DOT":"-0.00001382","COUNTRY_CODE":"US","REF_FRAME":"TEME","EPHEMERIS_TYPE":"0","SEMIMAJOR_AXIS":"6917.920","PERIOD":"95.438","OBJECT_ID":"2022-051AS","RA_OF_ASC_NODE":"28.3764","CENTER_NAME":"EARTH","MEAN_MOTION":"15.08827016","PERIAPSIS":"539.187","ECCENTRICITY":"0.00008640","GP_ID":"232335445","MEAN_MOTION_DDOT":"0.0000000000000","OBJECT_NAME":"STARLINK-3932","MEAN_ANOMALY":"264.7178","RCS_SIZE":"LARGE","ARG_OF_PERICENTER":"95.3913","SITE":"AFWTR"}];
